{
  "type": "FeatureCollection",
  "features": [
    {
      "type": "Feature",
      "properties": {
        "norad_id": 42989,
        "name": "SKYSAT-C9",
        "group": "resource",
        "lat": 75.93355558268672,
        "lon": 94.22091586248182,
        "alt_km": 443.2236565915837,
        "timestamp": "2025-12-21T05:44:51.233393+00:00",
        "meta_object_name": "SKYSAT-C9",
        "meta_object_id": "2017-068C",
        "meta_epoch": "2025-12-20T20:01:48.862848",
        "meta_mean_motion": 15.36239998,
        "meta_eccentricity": 0.00104568,
        "meta_inclination": 97.4199,
        "meta_ra_of_asc_node": 125.1534,
        "meta_arg_of_pericenter": 62.0931,
        "meta_mean_anomaly": 298.137,
        "meta_ephemeris_type": 0,
        "meta_classification_type": "U",
        "meta_norad_cat_id": 42989,
        "meta_element_set_no": 999,
        "meta_rev_at_epoch": 45532,
        "meta_bstar": 0.00026171528,
        "meta_mean_motion_dot": 9.179e-05,
        "meta_mean_motion_ddot": 0,
        "tle_line1": "1 42989U 17068C   25354.83459332  .00009179  00000+0  26172-3 0  9996",
        "tle_line2": "2 42989  97.4199 125.1534 0010456  62.0931 298.1370 15.36239998455325"
      },
      "geometry": {
        "type": "Point",
        "coordinates": [
          94.22091586248182,
          75.93355558268672
        ]
      }
    },
    {
      "type": "Feature",
      "properties": {
        "norad_id": 42990,
        "name": "SKYSAT-C8",
        "group": "resource",
        "lat": -46.78675937513406,
        "lon": 133.26094102719225,
        "alt_km": 472.7460259685686,
        "timestamp": "2025-12-21T05:44:51.233404+00:00",
        "meta_object_name": "SKYSAT-C8",
        "meta_object_id": "2017-068D",
        "meta_epoch": "2025-12-20T22:07:16.068864",
        "meta_mean_motion": 15.33086758,
        "meta_eccentricity": 0.00010522,
        "meta_inclination": 97.4289,
        "meta_ra_of_asc_node": 124.9584,
        "meta_arg_of_pericenter": 301.2761,
        "meta_mean_anomaly": 58.8378,
        "meta_ephemeris_type": 0,
        "meta_classification_type": "U",
        "meta_norad_cat_id": 42990,
        "meta_element_set_no": 999,
        "meta_rev_at_epoch": 45496,
        "meta_bstar": 0.00025726678,
        "meta_mean_motion_dot": 8.144e-05,
        "meta_mean_motion_ddot": 0,
        "tle_line1": "1 42990U 17068D   25354.92171376  .00008144  00000+0  25727-3 0  9993",
        "tle_line2": "2 42990  97.4289 124.9584 0001052 301.2761  58.8378 15.33086758454969"
      },
      "geometry": {
        "type": "Point",
        "coordinates": [
          133.26094102719225,
          -46.78675937513406
        ]
      }
    },
    {
      "type": "Feature",
      "properties": {
        "norad_id": 42991,
        "name": "SKYSAT-C7",
        "group": "resource",
        "lat": 29.612446807129423,
        "lon": -49.43489115867071,
        "alt_km": 469.43402881243674,
        "timestamp": "2025-12-21T05:44:51.233414+00:00",
        "meta_object_name": "SKYSAT-C7",
        "meta_object_id": "2017-068E",
        "meta_epoch": "2025-12-20T21:15:36.515520",
        "meta_mean_motion": 15.32485179,
        "meta_eccentricity": 0.00071501,
        "meta_inclination": 97.4296,
        "meta_ra_of_asc_node": 125.9567,
        "meta_arg_of_pericenter": 31.5746,
        "meta_mean_anomaly": 328.5923,
        "meta_ephemeris_type": 0,
        "meta_classification_type": "U",
        "meta_norad_cat_id": 42991,
        "meta_element_set_no": 999,
        "meta_rev_at_epoch": 45502,
        "meta_bstar": 0.00024119439,
        "meta_mean_motion_dot": 7.492e-05,
        "meta_mean_motion_ddot": 0,
        "tle_line1": "1 42991U 17068E   25354.88583930  .00007492  00000+0  24119-3 0  9991",
        "tle_line2": "2 42991  97.4296 125.9567 0007150  31.5746 328.5923 15.32485179455021"
      },
      "geometry": {
        "type": "Point",
        "coordinates": [
          -49.43489115867071,
          29.612446807129423
        ]
      }
    },
    {
      "type": "Feature",
      "properties": {
        "norad_id": 42992,
        "name": "SKYSAT-C6",
        "group": "resource",
        "lat": -60.39961503521823,
        "lon": -66.54227204134854,
        "alt_km": 481.4790211142945,
        "timestamp": "2025-12-21T05:44:51.233424+00:00",
        "meta_object_name": "SKYSAT-C6",
        "meta_object_id": "2017-068F",
        "meta_epoch": "2025-12-20T20:51:28.844640",
        "meta_mean_motion": 15.3164256,
        "meta_eccentricity": 0.00049602,
        "meta_inclination": 97.4327,
        "meta_ra_of_asc_node": 126.3719,
        "meta_arg_of_pericenter": 61.4751,
        "meta_mean_anomaly": 298.6989,
        "meta_ephemeris_type": 0,
        "meta_classification_type": "U",
        "meta_norad_cat_id": 42992,
        "meta_element_set_no": 999,
        "meta_rev_at_epoch": 45500,
        "meta_bstar": 0.0002403833,
        "meta_mean_motion_dot": 7.269e-05,
        "meta_mean_motion_ddot": 0,
        "tle_line1": "1 42992U 17068F   25354.86908385  .00007269  00000+0  24038-3 0  9997",
        "tle_line2": "2 42992  97.4327 126.3719 0004960  61.4751 298.6989 15.31642560455000"
      },
      "geometry": {
        "type": "Point",
        "coordinates": [
          -66.54227204134854,
          -60.39961503521823
        ]
      }
    },
    {
      "type": "Feature",
      "properties": {
        "norad_id": 43111,
        "name": "CARTOSAT-2F",
        "group": "resource",
        "lat": -28.310524260144717,
        "lon": 56.77158540104292,
        "alt_km": 514.8810524109094,
        "timestamp": "2025-12-21T05:44:51.233434+00:00",
        "meta_object_name": "CARTOSAT-2F",
        "meta_object_id": "2018-004A",
        "meta_epoch": "2025-12-20T21:58:08.825952",
        "meta_mean_motion": 15.19192738,
        "meta_eccentricity": 0.00013558,
        "meta_inclination": 97.431,
        "meta_ra_of_asc_node": 52.4211,
        "meta_arg_of_pericenter": 110.0455,
        "meta_mean_anomaly": 250.0926,
        "meta_ephemeris_type": 0,
        "meta_classification_type": "U",
        "meta_norad_cat_id": 43111,
        "meta_element_set_no": 999,
        "meta_rev_at_epoch": 44026,
        "meta_bstar": 0.00010453933,
        "meta_mean_motion_dot": 2.132e-05,
        "meta_mean_motion_ddot": 0,
        "tle_line1": "1 43111U 18004A   25354.91537993  .00002132  00000+0  10454-3 0  9992",
        "tle_line2": "2 43111  97.4310  52.4211 0001355 110.0455 250.0926 15.19192738440267"
      },
      "geometry": {
        "type": "Point",
        "coordinates": [
          56.77158540104292,
          -28.310524260144717
        ]
      }
    },
    {
      "type": "Feature",
      "properties": {
        "norad_id": 43259,
        "name": "GAOFEN-1 02",
        "group": "resource",
        "lat": -48.83741497979527,
        "lon": -136.31943286970085,
        "alt_km": 646.32973424795,
        "timestamp": "2025-12-21T05:44:51.233444+00:00",
        "meta_object_name": "GAOFEN-1 02",
        "meta_object_id": "2018-031A",
        "meta_epoch": "2025-12-20T22:12:20.024064",
        "meta_mean_motion": 14.76430062,
        "meta_eccentricity": 0.00023485,
        "meta_inclination": 98.0801,
        "meta_ra_of_asc_node": 52.7177,
        "meta_arg_of_pericenter": 184.8789,
        "meta_mean_anomaly": 175.2398,
        "meta_ephemeris_type": 0,
        "meta_classification_type": "U",
        "meta_norad_cat_id": 43259,
        "meta_element_set_no": 999,
        "meta_rev_at_epoch": 41639,
        "meta_bstar": 9.3573762e-05,
        "meta_mean_motion_dot": 5.99e-06,
        "meta_mean_motion_ddot": 0,
        "tle_line1": "1 43259U 18031A   25354.92523176  .00000599  00000+0  93574-4 0  9994",
        "tle_line2": "2 43259  98.0801  52.7177 0002348 184.8789 175.2398 14.76430062416393"
      },
      "geometry": {
        "type": "Point",
        "coordinates": [
          -136.31943286970085,
          -48.83741497979527
        ]
      }
    },
    {
      "type": "Feature",
      "properties": {
        "norad_id": 43260,
        "name": "GAOFEN-1 03",
        "group": "resource",
        "lat": -14.71770590354904,
        "lon": 55.04579342026634,
        "alt_km": 644.797329280399,
        "timestamp": "2025-12-21T05:44:51.233454+00:00",
        "meta_object_name": "GAOFEN-1 03",
        "meta_object_id": "2018-031B",
        "meta_epoch": "2025-12-20T23:18:31.456224",
        "meta_mean_motion": 14.76452052,
        "meta_eccentricity": 0.00016976,
        "meta_inclination": 98.0787,
        "meta_ra_of_asc_node": 52.6393,
        "meta_arg_of_pericenter": 278.6744,
        "meta_mean_anomaly": 81.4273,
        "meta_ephemeris_type": 0,
        "meta_classification_type": "U",
        "meta_norad_cat_id": 43260,
        "meta_element_set_no": 999,
        "meta_rev_at_epoch": 41639,
        "meta_bstar": 9.775952e-05,
        "meta_mean_motion_dot": 6.28e-06,
        "meta_mean_motion_ddot": 0,
        "tle_line1": "1 43260U 18031B   25354.97119741  .00000628  00000+0  97760-4 0  9994",
        "tle_line2": "2 43260  98.0787  52.6393 0001697 278.6744  81.4273 14.76452052416399"
      },
      "geometry": {
        "type": "Point",
        "coordinates": [
          55.04579342026634,
          -14.71770590354904
        ]
      }
    }
  ]
}